OBJECT_NAME,OBJECT_ID,EPOCH,MEAN_MOTION,ECCENTRICITY,INCLINATION,RA_OF_ASC_NODE,ARG_OF_PERICENTER,MEAN_ANOMALY,EPHEMERIS_TYPE,CLASSIFICATION_TYPE,NORAD_CAT_ID,ELEMENT_SET_NO,REV_AT_EPOCH,BSTAR,MEAN_MOTION_DOT,MEAN_MOTION_DDOT
QIANFAN-175,2026-124L,2026-06-19T21:52:21.510048,14.21339747,.00035996,88.9983,1.7240,161.6531,198.4790,0,U,69392,999,220,.32924711E-4,.86E-6,0
QIANFAN-176,2026-124M,2026-06-19T21:48:42.140448,14.21841069,.00025398,88.9983,1.7235,163.2284,196.8991,0,U,69393,999,220,.32216652E-4,.85E-6,0
QIANFAN-177,2026-124N,2026-06-19T21:43:40.518912,14.22730469,.0003824,88.9983,1.7230,138.7144,221.4338,0,U,69394,999,220,.23112048E-4,.66E-6,0
QIANFAN-178,2026-124P,2026-06-19T21:45:50.140512,14.22274429,.00030462,88.9983,1.7231,147.3858,212.7522,0,U,69395,999,220,.11269345E-3,.265E-5,0
QIANFAN-179,2026-124Q,2026-06-19T21:40:39.098784,14.23097110,.00030782,88.9983,1.7226,142.9572,217.1833,0,U,69396,999,220,.23551746E-4,.68E-6,0
QIANFAN-180,2026-124R,2026-06-19T21:38:41.660448,14.23618646,.00032703,88.9983,1.7225,155.6393,204.4954,0,U,69397,999,220,.23060801E-4,.67E-6,0
QIANFAN-181,2026-124S,2026-06-19T22:31:54.098112,14.16649402,.00026338,88.9983,1.7281,109.8521,250.2951,0,U,69398,999,220,.29775977E-4,.74E-6,0
QIANFAN-182,2026-124T,2026-06-19T20:31:25.430880,14.18738477,.00025813,88.9984,1.7341,133.8298,226.3105,0,U,69399,999,219,.3097638E-4,.79E-6,0
QIANFAN-183,2026-125A,2026-06-19T17:48:44.517024,14.13967662,.00151011,88.9922,280.1615,180.2570,179.8612,0,U,69401,999,206,-.12246021E+1,-.2144644E-1,0
QIANFAN-184,2026-125B,2026-06-19T17:37:57.039744,14.13282040,.00173359,88.9939,280.1598,157.7136,202.4808,0,U,69402,999,206,-.11283437E+1,-.1965231E-1,0
QIANFAN-185,2026-125C,2026-06-19T19:20:32.899776,14.11744531,.00206203,88.9950,280.1526,152.1571,208.0723,0,U,69403,999,207,-.10872817E+1,-.1850064E-1,0
QIANFAN-186,2026-125D,2026-06-19T17:32:24.623520,14.14978163,.0016523,88.9911,280.1598,183.2578,176.8505,0,U,69404,999,206,-.12050667E+1,-.2150127E-1,0
QIANFAN-187,2026-125E,2026-06-19T17:27:48.185856,14.16025362,.00176845,88.9950,280.1573,186.7116,173.3838,0,U,69405,999,206,-.11814077E+1,-.2149587E-1,0
QIANFAN-188,2026-125F,2026-06-19T17:21:12.881664,14.16843723,.00171259,88.9957,280.1569,188.2634,171.8275,0,U,69406,999,206,-.11463345E+1,-.2119869E-1,0
QIANFAN-189,2026-125G,2026-06-19T17:19:35.025888,14.14417547,.00149802,88.9947,280.1586,167.6028,192.5531,0,U,69407,999,206,-.10384278E+1,-.1853945E-1,0
QIANFAN-190,2026-125H,2026-06-19T22:23:29.648256,14.16273042,.00174385,88.9967,280.1343,185.5805,174.5192,0,U,69408,999,209,-.11418107E+1,-.2091624E-1,0
QIANFAN-191,2026-125J,2026-06-19T17:10:22.344960,14.15407399,.00124435,88.9947,280.1576,170.0084,190.1353,0,U,69409,999,206,-.99941962E+0,-.1819046E-1,0
QIANFAN-192,2026-125K,2026-06-19T22:11:02.949216,14.16063402,.00162795,88.9948,280.1334,177.5190,182.6082,0,U,69410,999,209,-.98186253E+0,-.179031E-1,0
QIANFAN-193,2026-125L,2026-06-19T22:05:55.515552,14.16328961,.00146662,88.9948,280.1327,178.8083,181.3143,0,U,69411,999,209,-.96557523E+0,-.1770444E-1,0
QIANFAN-194,2026-125M,2026-06-19T18:40:34.354560,14.16835506,.00123642,88.9947,280.1486,186.3713,173.7320,0,U,69412,999,206,-.96674698E+0,-.1787424E-1,0
QIANFAN-195,2026-125N,2026-06-19T18:39:45.471168,14.18838348,.00148432,88.9935,280.1519,185.9073,174.1944,0,U,69413,999,207,-.10715046E+1,-.206044E-1,0
QIANFAN-196,2026-125P,2026-06-19T21:58:31.590624,14.18090796,.00186149,88.9944,280.1314,184.7506,175.3509,0,U,69414,999,209,-.10087464E+1,-.1924076E-1,0
QIANFAN-197,2026-125Q,2026-06-19T18:34:12.311040,14.18379903,.00090014,88.9949,280.1479,172.9343,187.1975,0,U,69415,999,206,-.10034247E+1,-.1921916E-1,0
QIANFAN-198,2026-125R,2026-06-19T18:35:06.600480,14.17990071,.00090533,88.9948,280.1483,170.9232,189.2123,0,U,69416,999,207,-.99689647E+0,-.1897356E-1,0
QIANFAN-199,2026-125S,2026-06-19T18:30:59.600160,14.19732489,.00146954,88.9945,280.1474,175.6046,184.5276,0,U,69417,999,207,-.97994831E+0,-.1926055E-1,0
QIANFAN-200,2026-125T,2026-06-19T20:35:36.024576,14.15539357,.00145643,88.9946,280.1421,173.5980,186.5397,0,U,69418,999,208,-.1040158E+1,-.1893052E-1,0
STARLINK-37537,2026-126A,2026-06-19T20:12:09.274464,15.75218056,.00011143,97.2831,30.9483,91.7906,268.3487,0,U,69420,999,316,.12196822E-2,.186036E-2,0
STARLINK-37585,2026-126B,2026-06-19T22:59:52.288512,15.75258057,.00011167,97.2841,31.0971,91.3754,268.7639,0,U,69421,999,318,.1642785E-2,.253047E-2,0
